{
  "norad_id": 65691,
  "name": "STARLINK-34691",
  "history": [
    {
      "epoch": "2026-03-28T20:35:07.666368",
      "apogee_km": 475.74426648870576,
      "perigee_km": 474.6569159464834,
      "latitude_deg": 52.51316646741522,
      "longitude_deg": 111.44185152021237,
      "semi_major_axis_km": 6853.337591217594,
      "eccentricity": 7.933e-05,
      "inclination_deg": 53.157,
      "raan_deg": 246.263,
      "arg_perigee_deg": 69.1756,
      "mean_anomaly_deg": 290.9329,
      "mean_motion_rev_day": 15.30204849
    }
  ]
}