{"fetched_at":"2026-03-29T16:36:15Z","count":15609,"tles":[{"name":"STARLINK-34691","line1":"1 65691U 25212R   26087.85772762  .00017367  00000+0  59702-3 0  9995","line2":"2 65691  53.1570 246.2630 0000793  69.1756 290.9329 15.30204849 30324","category":"Starlink"}]}